OBJECT_NAME,OBJECT_ID,EPOCH,MEAN_MOTION,ECCENTRICITY,INCLINATION,RA_OF_ASC_NODE,ARG_OF_PERICENTER,MEAN_ANOMALY,EPHEMERIS_TYPE,CLASSIFICATION_TYPE,NORAD_CAT_ID,ELEMENT_SET_NO,REV_AT_EPOCH,BSTAR,MEAN_MOTION_DOT,MEAN_MOTION_DDOT
INTELSAT 21 (IS-21),2012-045A,2026-06-04T21:50:33.632736,1.00273575,.00021426,0.0389,81.4695,357.3064,84.2180,0,U,38749,999,5040,0,-.273E-5,0
INTELSAT 23 (IS-23),2012-057A,2026-06-04T21:51:56.001312,1.00268148,.000027,0.0123,307.3546,188.9810,31.9895,0,U,38867,999,4983,0,-.273E-5,0
FM-6,2013-058A,2026-06-04T14:47:01.290624,1.00251470,.00021209,0.0096,36.6997,147.5696,174.2528,0,U,39360,999,4594,0,-.1E-7,0
INTELSAT 30 (IS-30),2014-062A,2026-06-04T21:39:57.149856,1.00268318,.00011135,0.0264,48.5331,350.9711,83.7621,0,U,40271,999,667,0,-.138E-5,0
DIRECTV 14,2014-078B,2026-06-04T21:38:42.269568,1.00272349,.00002556,0.0095,324.1263,199.1564,315.5074,0,U,40333,999,4192,0,-.113E-5,0
DIRECTV 15,2015-026A,2026-06-04T21:37:42.365856,1.00272269,.00001544,0.0174,7.1745,277.0348,190.6666,0,U,40663,999,4034,0,-.9E-6,0
SKY MEXICO-1,2015-026B,2026-06-04T21:44:34.207008,1.00272506,.00023374,0.0166,2.2519,86.4964,51.9409,0,U,40664,999,4033,0,-.222E-5,0
INTELSAT 34 (IS-34),2015-039A,2026-06-04T21:51:11.073312,1.00269697,.00002757,0.0092,325.9423,62.8751,136.8315,0,U,40874,999,3951,0,-.273E-5,0
INTELSAT 31 (IS-31),2016-035A,2026-06-04T21:39:57.149856,1.00270918,.00007417,0.0146,264.7711,327.5151,251.0021,0,U,41581,999,3656,0,-.139E-5,0
INTELSAT 36 (IS-36),2016-053A,2026-06-04T19:57:21.473856,1.00270778,.0001599,0.0136,12.5282,330.5945,277.9825,0,U,41747,999,3583,0,-.12E-6,0
INTELSAT 32E (IS-32E),2017-007B,2026-06-04T11:38:44.577024,1.00272952,.00004549,0.0180,347.8046,15.9771,20.6539,0,U,41945,999,3409,0,-.257E-5,0
INTELSAT 35E (IS-35E),2017-041A,2026-06-04T21:57:10.498176,1.00274012,.00019741,0.0160,9.1939,63.7556,115.2079,0,U,42818,999,3269,0,-.226E-5,0
INTELSAT 37E (IS-37E),2017-059A,2026-06-04T22:01:54.543360,1.00272095,.00026046,0.0165,11.3176,78.5822,115.9498,0,U,42950,999,3194,0,-.128E-5,0
AZERSPACE 2 (IS-38),2018-074A,2026-06-04T12:03:57.159360,1.00272076,.00016543,0.0013,357.4289,67.8132,53.8049,0,U,43632,999,2832,0,.148E-5,0
HORIZONS-3E,2018-074B,2026-06-04T14:46:38.428320,1.00270803,.00007507,0.0181,149.5538,123.5060,10.6575,0,U,43633,999,2821,0,-.19E-6,0
AT&T T-16,2019-034A,2026-06-04T21:38:19.805568,1.00270996,.00003884,0.0248,65.2098,233.1425,178.7176,0,U,44333,999,2551,0,-.103E-5,0
INTELSAT 39 (IS-39),2019-049B,2026-06-04T15:25:19.326720,1.00271423,.00005827,0.0188,328.9935,359.4045,217.9725,0,U,44476,999,2500,0,.45E-6,0
GALAXY 30 (G-30),2020-056C,2026-06-04T21:31:20.476128,1.00272508,.0002431,0.0190,329.0928,101.8091,20.2554,0,U,46114,999,2117,0,.49E-6,0
GALAXY 33 (G-33),2022-128A,2026-06-04T18:39:55.412352,1.00271770,.00020258,0.0161,33.5739,40.2638,326.3762,0,U,54026,999,1361,0,.91E-6,0
GALAXY 34 (G-34),2022-128B,2026-06-04T14:54:01.167840,1.00276282,.00020968,0.0159,0.4577,81.0440,266.0785,0,U,54027,999,1378,0,.7E-6,0
GALAXY 31 (G-31),2022-153A,2026-06-04T21:32:35.356416,1.00272105,.0001486,0.0124,53.4548,20.7253,21.3059,0,U,54243,999,701,0,.25E-6,0
GALAXY 32 (G-32),2022-153B,2026-06-03T20:00:59.416128,1.00270822,.00023838,0.0097,353.7552,46.7034,61.0732,0,U,54244,999,1301,0,-.162E-5,0
GALAXY 35 (G-35),2022-170A,2026-06-04T21:40:27.102144,1.00272292,.00022303,0.0153,38.5218,40.3537,46.4870,0,U,54741,999,1277,0,-.15E-5,0
GALAXY 36 (G-36),2022-170B,2026-06-04T19:59:03.050016,1.00272562,.00028885,0.0170,238.9661,201.6493,23.4292,0,U,54742,999,1265,0,-.173E-5,0
GALAXY 37 (G-37),2023-112A,2026-06-04T21:30:43.036416,1.00273210,.00022388,0.0169,318.2900,118.6346,12.1027,0,U,57493,999,1042,0,.6E-6,0
