INTELSAT 21 (IS-21)     
1 38749U 12045A   26155.91011149 -.00000273  00000+0  00000+0 0  9999
2 38749   0.0389  81.4695 0002142 357.3064  84.2180  1.00273575 50405
INTELSAT 23 (IS-23)     
1 38867U 12057A   26155.91106483 -.00000273  00000+0  00000+0 0  9999
2 38867   0.0123 307.3546 0000270 188.9810  31.9895  1.00268148 49831
FM-6                    
1 39360U 13058A   26155.61598716 -.00000001  00000+0  00000+0 0  9990
2 39360   0.0096  36.6997 0002120 147.5696 174.2528  1.00251470 45942
INTELSAT 30 (IS-30)     
1 40271U 14062A   26155.90274479 -.00000138  00000+0  00000+0 0  9999
2 40271   0.0264  48.5331 0001113 350.9711  83.7621  1.00268318  6679
DIRECTV 14              
1 40333U 14078B   26155.90187812 -.00000113  00000+0  00000+0 0  9992
2 40333   0.0095 324.1263 0000255 199.1564 315.5074  1.00272349 41926
DIRECTV 15              
1 40663U 15026A   26155.90118479 -.00000090  00000+0  00000+0 0  9999
2 40663   0.0174   7.1745 0000154 277.0348 190.6666  1.00272269 40342
SKY MEXICO-1            
1 40664U 15026B   26155.90595147 -.00000222  00000+0  00000+0 0  9998
2 40664   0.0166   2.2519 0002337  86.4964  51.9409  1.00272506 40337
INTELSAT 34 (IS-34)     
1 40874U 15039A   26155.91054483 -.00000273  00000+0  00000+0 0  9995
2 40874   0.0092 325.9423 0000275  62.8751 136.8315  1.00269697 39512
INTELSAT 31 (IS-31)     
1 41581U 16035A   26155.90274479 -.00000139  00000+0  00000+0 0  9997
2 41581   0.0146 264.7711 0000741 327.5151 251.0021  1.00270918 36565
INTELSAT 36 (IS-36)     
1 41747U 16053A   26155.83149854 -.00000012  00000+0  00000+0 0  9991
2 41747   0.0136  12.5282 0001599 330.5945 277.9825  1.00270778 35839
INTELSAT 32E (IS-32E)   
1 41945U 17007B   26155.48523816 -.00000257  00000+0  00000+0 0  9997
2 41945   0.0180 347.8046 0000454  15.9771  20.6539  1.00272952 34098
INTELSAT 35E (IS-35E)   
1 42818U 17041A   26155.91470484 -.00000226  00000+0  00000+0 0  9991
2 42818   0.0160   9.1939 0001974  63.7556 115.2079  1.00274012 32698
INTELSAT 37E (IS-37E)   
1 42950U 17059A   26155.91799240 -.00000128  00000+0  00000+0 0  9992
2 42950   0.0165  11.3176 0002604  78.5822 115.9498  1.00272095 31947
AZERSPACE 2 (IS-38)     
1 43632U 18074A   26155.50274490  .00000148  00000+0  00000+0 0  9999
2 43632   0.0013 357.4289 0001654  67.8132  53.8049  1.00272076 28324
HORIZONS-3E             
1 43633U 18074B   26155.61572255 -.00000019  00000+0  00000+0 0  9990
2 43633   0.0181 149.5538 0000750 123.5060  10.6575  1.00270803 28213
AT&T T-16               
1 44333U 19034A   26155.90161812 -.00000103  00000+0  00000+0 0  9994
2 44333   0.0248  65.2098 0000388 233.1425 178.7176  1.00270996 25516
INTELSAT 39 (IS-39)     
1 44476U 19049B   26155.64258480  .00000045  00000+0  00000+0 0  9991
2 44476   0.0188 328.9935 0000582 359.4045 217.9725  1.00271423 25008
GALAXY 30 (G-30)        
1 46114U 20056C   26155.89676477  .00000049  00000+0  00000+0 0  9993
2 46114   0.0190 329.0928 0002431 101.8091  20.2554  1.00272508 21175
GALAXY 33 (G-33)        
1 54026U 22128A   26155.77772468  .00000091  00000+0  00000+0 0  9997
2 54026   0.0161  33.5739 0002025  40.2638 326.3762  1.00271770 13614
GALAXY 34 (G-34)        
1 54027U 22128B   26155.62084685  .00000070  00000+0  00000+0 0  9996
2 54027   0.0159   0.4577 0002096  81.0440 266.0785  1.00276282 13783
GALAXY 31 (G-31)        
1 54243U 22153A   26155.89763144  .00000025  00000+0  00000+0 0  9997
2 54243   0.0124  53.4548 0001486  20.7253  21.3059  1.00272105  7010
GALAXY 32 (G-32)        
1 54244U 22153B   26154.83402102 -.00000162  00000+0  00000+0 0  9998
2 54244   0.0097 353.7552 0002383  46.7034  61.0732  1.00270822 13013
GALAXY 35 (G-35)        
1 54741U 22170A   26155.90309146 -.00000150  00000+0  00000+0 0  9999
2 54741   0.0153  38.5218 0002230  40.3537  46.4870  1.00272292 12779
GALAXY 36 (G-36)        
1 54742U 22170B   26155.83267419 -.00000173  00000+0  00000+0 0  9993
2 54742   0.0170 238.9661 0002888 201.6493  23.4292  1.00272562 12659
GALAXY 37 (G-37)        
1 57493U 23112A   26155.89633144  .00000060  00000+0  00000+0 0  9998
2 57493   0.0169 318.2900 0002238 118.6346  12.1027  1.00273210 10429
